start=new Date('2023-01-16T00:00:00.000Z').valueOf();
sats=[{"TIME_SYSTEM":"UTC","GP_ID":"223146487","INCLINATION":"53.0521","PERIAPSIS":"546.223","EPOCH":"2023-01-15T21:49:13.272960","APOAPSIS":"548.190","OBJECT_ID":"2020-074AD","FILE":"3748322","MEAN_ANOMALY":"272.6765","NORAD_CAT_ID":"46766","REV_AT_EPOCH":"12332","RCS_SIZE":"LARGE","BSTAR":"0.00069985000000","SITE":"AFETR","TLE_LINE1":"1 46766U 20074AD  23015.90918140  .00010159  00000-0  69985-3 0  9991","RA_OF_ASC_NODE":"93.7029","MEAN_ELEMENT_THEORY":"SGP4","CENTER_NAME":"EARTH","TLE_LINE2":"2 46766  53.0521  93.7029 0001420  87.4386 272.6765 15.06402212123329","EPHEMERIS_TYPE":"0","CLASSIFICATION_TYPE":"U","OBJECT_NAME":"STARLINK-1916","LAUNCH_DATE":"2020-10-24","MEAN_MOTION_DOT":"0.00010159","ARG_OF_PERICENTER":"87.4386","DECAY_DATE":null,"ELEMENT_SET_NO":"999","MEAN_MOTION":"15.06402212","MEAN_MOTION_DDOT":"0.0000000000000","OBJECT_TYPE":"PAYLOAD","ECCENTRICITY":"0.00014200","REF_FRAME":"TEME","PERIOD":"95.592","COUNTRY_CODE":"US","SEMIMAJOR_AXIS":"6925.342"},{"BSTAR":"0.00006440000000","CENTER_NAME":"EARTH","MEAN_ELEMENT_THEORY":"SGP4","TLE_LINE1":"1 46767U 20074AE  23015.54057612  .00000678  00000-0  64400-4 0  9993","RA_OF_ASC_NODE":"95.3454","SITE":"AFETR","REV_AT_EPOCH":"12327","NORAD_CAT_ID":"46767","MEAN_ANOMALY":"284.2571","RCS_SIZE":"LARGE","APOAPSIS":"547.861","EPOCH":"2023-01-15T12:58:25.776768","OBJECT_ID":"2020-074AE","FILE":"3746413","GP_ID":"223051970","TIME_SYSTEM":"UTC","PERIAPSIS":"546.515","INCLINATION":"53.0541","REF_FRAME":"TEME","COUNTRY_CODE":"US","PERIOD":"95.592","SEMIMAJOR_AXIS":"6925.323","MEAN_MOTION":"15.06408357","ELEMENT_SET_NO":"999","ECCENTRICITY":"0.00009720","OBJECT_TYPE":"PAYLOAD","MEAN_MOTION_DDOT":"0.0000000000000","LAUNCH_DATE":"2020-10-24","OBJECT_NAME":"STARLINK-1917","DECAY_DATE":null,"ARG_OF_PERICENTER":"75.8526","MEAN_MOTION_DOT":"0.00000678","TLE_LINE2":"2 46767  53.0541  95.3454 0000972  75.8526 284.2571 15.06408357123274","CLASSIFICATION_TYPE":"U","EPHEMERIS_TYPE":"0"},{"FILE":"3748322","APOAPSIS":"548.696","EPOCH":"2023-01-15T14:50:00.461760","OBJECT_ID":"2020-074AH","PERIAPSIS":"545.768","INCLINATION":"53.0506","TIME_SYSTEM":"UTC","GP_ID":"223145740","TLE_LINE1":"1 46770U 20074AH  23015.61806090  .00003687  00000-0  26637-3 0  9999","RA_OF_ASC_NODE":"95.5654","SITE":"AFETR","CENTER_NAME":"EARTH","MEAN_ELEMENT_THEORY":"SGP4","BSTAR":"0.00026637000000","RCS_SIZE":"LARGE","NORAD_CAT_ID":"46770","MEAN_ANOMALY":"299.1186","REV_AT_EPOCH":"12326","MEAN_MOTION_DOT":"0.00003687","ARG_OF_PERICENTER":"61.0015","DECAY_DATE":null,"LAUNCH_DATE":"2020-10-24","OBJECT_NAME":"STARLINK-1932","EPHEMERIS_TYPE":"0","CLASSIFICATION_TYPE":"U","TLE_LINE2":"2 46770  53.0506  95.5654 0002114  61.0015 299.1186 15.06393958123269","COUNTRY_CODE":"US","SEMIMAJOR_AXIS":"6925.367","PERIOD":"95.593","REF_FRAME":"TEME","ECCENTRICITY":"0.00021140","MEAN_MOTION_DDOT":"0.0000000000000","OBJECT_TYPE":"PAYLOAD","ELEMENT_SET_NO":"999","MEAN_MOTION":"15.06393958"},{"MEAN_MOTION":"15.06355934","ELEMENT_SET_NO":"999","OBJECT_TYPE":"PAYLOAD","MEAN_MOTION_DDOT":"0.0000000000000","ECCENTRICITY":"0.00015970","REF_FRAME":"TEME","COUNTRY_CODE":"US","PERIOD":"95.595","SEMIMAJOR_AXIS":"6925.484","TLE_LINE2":"2 46772  53.0545  96.7899 0001597  55.1056 305.0083 15.06355934123233","CLASSIFICATION_TYPE":"U","EPHEMERIS_TYPE":"0","OBJECT_NAME":"STARLINK-1936","LAUNCH_DATE":"2020-10-24","DECAY_DATE":null,"ARG_OF_PERICENTER":"55.1056","MEAN_MOTION_DOT":"-0.00004161","REV_AT_EPOCH":"12323","MEAN_ANOMALY":"305.0083","NORAD_CAT_ID":"46772","RCS_SIZE":"LARGE","BSTAR":"-0.00026090000000","MEAN_ELEMENT_THEORY":"SGP4","CENTER_NAME":"EARTH","TLE_LINE1":"1 46772U 20074AK  23015.21897094 -.00004161  00000-0 -26090-3 0  9994","SITE":"AFETR","RA_OF_ASC_NODE":"96.7899","GP_ID":"223035799","TIME_SYSTEM":"UTC","INCLINATION":"53.0545","PERIAPSIS":"546.243","APOAPSIS":"548.455","OBJECT_ID":"2020-074AK","EPOCH":"2023-01-15T05:15:19.089216","FILE":"3745579"},{"LAUNCH_DATE":"2020-10-24","OBJECT_NAME":"STARLINK-1939","DECAY_DATE":null,"MEAN_MOTION_DOT":"0.00111877","ARG_OF_PERICENTER":"34.1105","TLE_LINE2":"2 46774  53.0536  64.5266 0001800  34.1105 326.0010 15.31366991123736","CLASSIFICATION_TYPE":"U","EPHEMERIS_TYPE":"0","REF_FRAME":"TEME","COUNTRY_CODE":"US","SEMIMAJOR_AXIS":"6849.870","PERIOD":"94.034","MEAN_MOTION":"15.31366991","ELEMENT_SET_NO":"999","ECCENTRICITY":"0.00018000","OBJECT_TYPE":"PAYLOAD","MEAN_MOTION_DDOT":"0.0000000000000","OBJECT_ID":"2020-074AM","APOAPSIS":"472.968","EPOCH":"2023-01-15T19:48:50.492160","FILE":"3748322","GP_ID":"223144739","TIME_SYSTEM":"UTC","PERIAPSIS":"470.502","INCLINATION":"53.0536","BSTAR":"0.00360010000000","CENTER_NAME":"EARTH","MEAN_ELEMENT_THEORY":"SGP4","TLE_LINE1":"1 46774U 20074AM  23015.82558440  .00111877  00000-0  36001-2 0  9995","RA_OF_ASC_NODE":"64.5266","SITE":"AFETR","REV_AT_EPOCH":"12373","NORAD_CAT_ID":"46774","MEAN_ANOMALY":"326.0010","RCS_SIZE":"LARGE"},{"OBJECT_ID":"2020-074AP","APOAPSIS":"327.634","EPOCH":"2023-01-15T22:00:01.999584","FILE":"3748322","TIME_SYSTEM":"UTC","GP_ID":"223144989","INCLINATION":"53.0407","PERIAPSIS":"322.141","BSTAR":"0.00168650000000","TLE_LINE1":"1 46776U 20074AP  23015.91668981  .00364676  00000-0  16865-2 0  9992","RA_OF_ASC_NODE":"338.3580","SITE":"AFETR","MEAN_ELEMENT_THEORY":"SGP4","CENTER_NAME":"EARTH","MEAN_ANOMALY":"120.3206","NORAD_CAT_ID":"46776","REV_AT_EPOCH":"130","RCS_SIZE":"LARGE","OBJECT_NAME":"STARLINK-1946","LAUNCH_DATE":"2020-10-24","ARG_OF_PERICENTER":"84.7561","MEAN_MOTION_DOT":"0.00364676","DECAY_DATE":null,"TLE_LINE2":"2 46776  53.0407 338.3580 0004097  84.7561 120.3206 15.81964529  1300","EPHEMERIS_TYPE":"0","CLASSIFICATION_TYPE":"U","REF_FRAME":"TEME","COUNTRY_CODE":"US","SEMIMAJOR_AXIS":"6703.023","PERIOD":"91.026","ELEMENT_SET_NO":"999","MEAN_MOTION":"15.81964529","MEAN_MOTION_DDOT":"0.0000000000000","OBJECT_TYPE":"PAYLOAD","ECCENTRICITY":"0.00040970"},{"TLE_LINE2":"2 46779  53.0535  68.9804 0001337  64.1469 295.9657 15.06420863123650","EPHEMERIS_TYPE":"0","CLASSIFICATION_TYPE":"U","OBJECT_NAME":"STARLINK-1798","LAUNCH_DATE":"2020-10-24","ARG_OF_PERICENTER":"64.1469","MEAN_MOTION_DOT":"0.00029674","DECAY_DATE":null,"ELEMENT_SET_NO":"999","MEAN_MOTION":"15.06420863","OBJECT_TYPE":"PAYLOAD","MEAN_MOTION_DDOT":"0.0000000000000","ECCENTRICITY":"0.00013370","REF_FRAME":"TEME","PERIOD":"95.591","COUNTRY_CODE":"US","SEMIMAJOR_AXIS":"6925.285","TIME_SYSTEM":"UTC","GP_ID":"223146239","INCLINATION":"53.0535","PERIAPSIS":"546.224","APOAPSIS":"548.076","OBJECT_ID":"2020-074AS","EPOCH":"2023-01-15T20:19:38.960544","FILE":"3748322","MEAN_ANOMALY":"295.9657","NORAD_CAT_ID":"46779","REV_AT_EPOCH":"12365","RCS_SIZE":"LARGE","BSTAR":"0.00200150000000","TLE_LINE1":"1 46779U 20074AS  23015.84697871  .00029674  00000-0  20015-2 0  9995","RA_OF_ASC_NODE":"68.9804","SITE":"AFETR","MEAN_ELEMENT_THEORY":"SGP4","CENTER_NAME":"EARTH"},{"REF_FRAME":"TEME","COUNTRY_CODE":"US","PERIOD":"95.592","SEMIMAJOR_AXIS":"6925.353","ELEMENT_SET_NO":"999","MEAN_MOTION":"15.06398442","ECCENTRICITY":"0.00023620","MEAN_MOTION_DDOT":"0.0000000000000","OBJECT_TYPE":"PAYLOAD","LAUNCH_DATE":"2020-10-24","OBJECT_NAME":"STARLINK-1832","ARG_OF_PERICENTER":"53.4069","MEAN_MOTION_DOT":"0.00002573","DECAY_DATE":null,"TLE_LINE2":"2 46780  53.0520  69.0346 0002362  53.4069 306.7137 15.06398442123656","EPHEMERIS_TYPE":"0","CLASSIFICATION_TYPE":"U","BSTAR":"0.00019158000000","TLE_LINE1":"1 46780U 20074AT  23015.83592374  .00002573  00000-0  19158-3 0  9994","RA_OF_ASC_NODE":"69.0346","SITE":"AFETR","CENTER_NAME":"EARTH","MEAN_ELEMENT_THEORY":"SGP4","NORAD_CAT_ID":"46780","MEAN_ANOMALY":"306.7137","REV_AT_EPOCH":"12365","RCS_SIZE":"LARGE","OBJECT_ID":"2020-074AT","APOAPSIS":"548.854","EPOCH":"2023-01-15T20:03:43.811136","FILE":"3748322","TIME_SYSTEM":"UTC","GP_ID":"223146488","PERIAPSIS":"545.583","INCLINATION":"53.0520"},{"EPHEMERIS_TYPE":"0","CLASSIFICATION_TYPE":"U","TLE_LINE2":"2 46783  53.0533  69.0066 0002174  47.3028 312.8143 15.06398889123650","ARG_OF_PERICENTER":"47.3028","MEAN_MOTION_DOT":"0.00017363","DECAY_DATE":null,"OBJECT_NAME":"STARLINK-1851","LAUNCH_DATE":"2020-10-24","MEAN_MOTION_DDOT":"0.0000000000000","OBJECT_TYPE":"PAYLOAD","ECCENTRICITY":"0.00021740","ELEMENT_SET_NO":"999","MEAN_MOTION":"15.06398889","COUNTRY_CODE":"US","SEMIMAJOR_AXIS":"6925.352","PERIOD":"95.592","REF_FRAME":"TEME","INCLINATION":"53.0533","PERIAPSIS":"545.711","TIME_SYSTEM":"UTC","GP_ID":"223145741","FILE":"3748322","APOAPSIS":"548.723","EPOCH":"2023-01-15T20:09:02.285856","OBJECT_ID":"2020-074AW","RCS_SIZE":"LARGE","MEAN_ANOMALY":"312.8143","NORAD_CAT_ID":"46783","REV_AT_EPOCH":"12365","SITE":"AFETR","TLE_LINE1":"1 46783U 20074AW  23015.83960979  .00017363  00000-0  11817-2 0  9993","RA_OF_ASC_NODE":"69.0066","MEAN_ELEMENT_THEORY":"SGP4","CENTER_NAME":"EARTH","BSTAR":"0.00118170000000"},{"OBJECT_ID":"2020-074AX","APOAPSIS":"548.652","EPOCH":"2023-01-15T20:12:59.145408","FILE":"3748322","GP_ID":"223145989","TIME_SYSTEM":"UTC","PERIAPSIS":"545.806","INCLINATION":"53.0553","BSTAR":"0.00067845000000","CENTER_NAME":"EARTH","MEAN_ELEMENT_THEORY":"SGP4","SITE":"AFETR","TLE_LINE1":"1 46784U 20074AX  23015.84235122  .00009837  00000-0  67845-3 0  9990","RA_OF_ASC_NODE":"68.9834","REV_AT_EPOCH":"12365","NORAD_CAT_ID":"46784","MEAN_ANOMALY":"296.0054","RCS_SIZE":"LARGE","LAUNCH_DATE":"2020-10-24","OBJECT_NAME":"STARLINK-1882","DECAY_DATE":null,"MEAN_MOTION_DOT":"0.00009837","ARG_OF_PERICENTER":"64.1147","TLE_LINE2":"2 46784  53.0553  68.9834 0002055  64.1147 296.0054 15.06394877123658","CLASSIFICATION_TYPE":"U","EPHEMERIS_TYPE":"0","REF_FRAME":"TEME","COUNTRY_CODE":"US","PERIOD":"95.592","SEMIMAJOR_AXIS":"6925.364","MEAN_MOTION":"15.06394877","ELEMENT_SET_NO":"999","ECCENTRICITY":"0.00020550","OBJECT_TYPE":"PAYLOAD","MEAN_MOTION_DDOT":"0.0000000000000"}];
